GLOBALSTAR M024         
1 25883U 99043A   25005.51403115 -.00000025  00000+0  14179-2 0  9994
2 25883  52.0047  27.6692 0001685 182.3049 317.3236 11.10165503 96794
GLOBALSTAR M027         
1 25884U 99043B   25005.48312208 -.00000083  00000+0 -74207-3 0  9997
2 25884  52.0212 101.1104 0021890  90.2295 270.1006 11.04370398123262
GLOBALSTAR M054         
1 25885U 99043C   25005.44910352  .00000028  00000+0  25302-2 0  9996
2 25885  52.0127 255.8006 0004884 263.3783 146.4329 11.39214702100504
GLOBALSTAR M053         
1 25886U 99043D   25005.49891832 -.00000068  00000+0  27668-4 0  9997
2 25886  51.9943 193.7462 0004036 144.8636 257.3345 11.27662264101096
GLOBALSTAR M058         
1 25907U 99049A   25005.79392249 -.00000065  00000+0  26319-3 0  9996
2 25907  51.9906 182.8062 0001414  10.3712 349.7151 11.93191639133365
GLOBALSTAR M050         
1 25908U 99049B   25005.54610222 -.00000125  00000+0 -41064-3 0  9996
2 25908  51.9957 203.2951 0010337  69.9690 336.2982 12.07447868128547
GLOBALSTAR M033         
1 25909U 99049C   25005.75946536 -.00000109  00000+0 -16621-3 0  9993
2 25909  51.9920  85.7591 0012311 287.6521  72.2982 12.20294162148638
GLOBALSTAR M055         
1 25910U 99049D   25005.41149301 -.00000052  00000+0  36431-3 0  9990
2 25910  52.0019 105.4101 0007829 150.7988 209.3302 12.29418382148262
